INMARSAT 4-F3           
1 33278U 08039A   24251.55582128 -.00000133  00000+0  00000+0 0  9999
2 33278   3.7675  28.0414 0002661 151.8932 269.2863  1.00271575 40059
NIMIQ 4                 
1 33373U 08044A   24252.13868784 -.00000214  00000+0  00000+0 0  9991
2 33373   0.0033 173.2138 0001569 347.9911 154.4082  1.00272885 58355
GALAXY 19 (G-19)        
1 33376U 08045A   24251.91636571 -.00000132  00000+0  00000+0 0  9996
2 33376   0.0537 275.4363 0002794 248.4005  56.5370  1.00272242 58418
ASTRA 1M                
1 33436U 08057A   24252.15393591  .00000127  00000+0  00000+0 0  9998
2 33436   0.0143  99.2408 0005651  58.1769 264.8993  1.00274534 57991
EUTELSAT HOTBIRD 13C    
1 33459U 08065A   24252.14768052 -.00000093  00000+0  00000+0 0  9992
2 33459   1.2728  86.5176 0004483  89.1522 212.7076  1.00272457 57763
EXPRESS-AM44            
1 33595U 09007A   24252.14794117 -.00000082  00000+0  00000+0 0  9999
2 33595   1.7860  86.3098 0004116  75.1817 228.4670  1.00272555 57057
NSS-9                   
1 33749U 09008A   24251.82887716  .00000078  00000+0  00000+0 0  9997
2 33749   0.0506 305.0959 0002103 211.9303 311.8240  1.00272789 57035
EUTELSAT 33E            
1 33750U 09008B   24251.91662635 -.00000142  00000+0  00000+0 0  9993
2 33750   0.9928  87.9052 0004841  80.2372  53.9450  1.00272785 56951
TELSTAR 11N             
1 34111U 09009A   24252.00743876 -.00000244  00000+0  00000+0 0  9997
2 34111   0.0218 148.4219 0002688   0.7446 163.5163  1.00269542 56923
WGS F2 (USA 204)        
1 34713U 09017A   24251.89653686  .00000074  00000+0  00000+0 0  9999
2 34713   0.0215 129.0771 0000889  52.0507 186.6047  1.00269196 39120
SES-7 (PROTOSTAR 2)     
1 34941U 09027A   24252.02858706 -.00000338  00000+0  00000+0 0  9993
2 34941   0.0244  54.6024 0001448 154.6857 256.8547  1.00272468 56128
MEASAT-3A               
1 35362U 09032A   24251.89586194 -.00000104  00000+0  00000+0 0  9991
2 35362   0.0099 162.2346 0001766   9.6252 298.0605  1.00272412  1546
GOES 14                 
1 35491U 09033A   24251.54700821 -.00000061  00000+0  00000+0 0  9994
2 35491   0.0165 188.9255 0004111 327.6117 279.1293  1.00271314    99
FM-5                    
1 35493U 09034A   24252.19007427 -.00000194  00000+0  00000+0 0  9998
2 35493   0.0464 277.2416 0000181 167.0521 245.7414  1.00272845 55490
TERRESTAR-1             
1 35496U 09035A   24251.91358554 -.00000049  00000+0  00000+0 0  9990
2 35496   4.5859  47.8553 0002687 127.7023  29.7986  1.00272161 55648
ASIASAT 5               
1 35696U 09042A   24251.89910483 -.00000301  00000+0  00000+0 0  9993
2 35696   0.0150 153.3143 0001741   0.1177 258.1868  1.00274524 55212
JCSAT-12 (JCSAT-RA)     
1 35755U 09044A   24251.89030160 -.00000321  00000+0  00000+0 0  9998
2 35755   0.0162 143.0691 0001713 341.0246 315.9288  1.00272520 55119
OPTUS D3                
1 35756U 09044B   24251.89508003 -.00000140  00000+0  00000+0 0  9994
2 35756   0.2165  82.8926 0002733  62.0161 320.7813  1.00272466 55077
NIMIQ 5                 
1 35873U 09050A   24251.92116432 -.00000250  00000+0  00000+0 0  9998
2 35873   0.0427 274.3889 0002730 246.3398  85.6666  1.00273529 54857
AMAZONAS 2              
1 35942U 09054A   24251.85198736 -.00000276  00000+0  00000+0 0  9996
2 35942   0.1305  99.5155 0005395  76.4639  57.3579  1.00271320 54691
COMSATBW-1              
1 35943U 09054B   24251.87657449  .00000030  00000+0  00000+0 0  9997
2 35943   0.0459  86.1312 0003067 100.2283 179.6456  1.00273397 54804
NSS-12                  
1 36032U 09058A   24251.89653655  .00000078  00000+0  00000+0 0  9990
2 36032   0.0148  73.5260 0003487  90.5129 203.1694  1.00272397 54421
THOR 6                  
1 36033U 09058B   24250.64987253 -.00000006  00000+0  00000+0 0  9999
2 36033   0.0264 240.1944 0002538 320.1513  18.9943  1.00273433 54507
INTELSAT 14 (IS-14)     
1 36097U 09064A   24251.85511505 -.00000267  00000+0  00000+0 0  9992
2 36097   0.0151 102.1254 0002364  62.0989  86.0501  1.00273059 54206
EUTELSAT 36B            
1 36101U 09065A   24251.92618703  .00000162  00000+0  00000+0 0  9998
2 36101   0.0705   9.2028 0005229 157.2117 190.3837  1.00273598 54328
INTELSAT 15 (IS-15)     
1 36106U 09067A   24251.91964733 -.00000179  00000+0  00000+0 0  9990
2 36106   0.0175 193.2225 0002265 338.1539 232.3286  1.00273069 34733
WGS F3 (USA 211)        
1 36108U 09068A   24251.55066240 -.00000011  00000+0  00000+0 0  9994
2 36108   0.0832  89.8619 0001508 152.5391 199.0531  0.99717032 40105
DIRECTV 12              
1 36131U 09075A   24251.91514939 -.00000097  00000+0  00000+0 0  9995
2 36131   0.0381 311.5980 0000200 106.9530 155.6762  1.00272342 40064
BEIDOU-2 G1             
1 36287U 10001A   24252.17808867 -.00000273  00000+0  00000+0 0  9999
2 36287   2.7930  59.0389 0002690 285.3181 207.9342  1.00269892 53673
RADUGA-1M 2             
1 36358U 10002A   24251.89937620 -.00000178  00000+0  00000+0 0  9991
2 36358   1.9289  87.3607 0002143 105.7957 203.1094  1.00273106 43591
SDO                     
1 36395U 10005A   24251.55377872 -.00000061  00000+0  00000+0 0  9996
2 36395  33.2892  96.3030 0001035 164.0123 184.3157  1.00276141 53539
INTELSAT 16 (IS-16)     
1 36397U 10006A   24252.13816701 -.00000238  00000+0  00000+0 0  9999
2 36397   0.0127 157.6840 0002831  28.6998 134.8395  1.00269753 53236
EWS-G2 (GOES 15)        
1 36411U 10008A   24251.15882615  .00000042  00000+0  00000+0 0  9998
2 36411   0.3967 274.8201 0005476 297.8047 252.7172  1.00269869 53145
ECHOSTAR 14             
1 36499U 10010A   24251.91193483  .00000007  00000+0  00000+0 0  9990
2 36499   0.0212 152.5467 0002280   8.6209  35.6850  1.00269826 40066
SES-1                   
1 36516U 10016A   24251.55290993 -.00000108  00000+0  00000+0 0  9993
2 36516   0.0587 291.6882 0002249 244.3220 269.1481  1.00273024 52538
ASTRA 3B                
1 36581U 10021A   24251.86904068  .00000144  00000+0  00000+0 0  9999
2 36581   0.0238  35.8589 0003793 122.0331 165.9003  1.00275987 52381
COMSATBW-2              
1 36582U 10021B   24251.92132772  .00000095  00000+0  00000+0 0  9997
2 36582   0.0221 125.9705 0002430  57.5720 148.8021  1.00272188 52465
BEIDOU-2 G3             
1 36590U 10024A   24251.89862304 -.00000129  00000+0  00000+0 0  9995
2 36590   2.9901  61.5766 0005811 357.0822 331.8907  1.00274289 52280
BADR-5                  
1 36592U 10025A   24251.87013742  .00000151  00000+0  00000+0 0  9994
2 36592   0.0267 144.4665 0005590  19.2267 162.9970  1.00269178 46725
COMS 1                  
1 36744U 10032A   24251.88951969 -.00000338  00000+0  00000+0 0  9992
2 36744   3.1576  83.4718 0000853  85.0921 267.2574  1.00272497 44597
ARABSAT-5A              
1 36745U 10032B   24251.87453559  .00000160  00000+0  00000+0 0  9996
2 36745   0.0690  54.7300 0004391  97.7026 180.3047  1.00272191 52158
ECHOSTAR 15             
1 36792U 10034A   24251.85181359 -.00000275  00000+0  00000+0 0  9992
2 36792   0.0487 278.7306 0002470 217.8083  95.8691  1.00274371 51833
BEIDOU-2 IGSO-1         
1 36828U 10036A   24251.75270987 -.00000116  00000+0  00000+0 0  9993
2 36828  54.2557 168.8219 0040971 205.1058 350.9174  1.00258507 51715
NILESAT 201             
1 36830U 10037A   24251.14746316 -.00000052  00000+0  00000+0 0  9993
2 36830   0.0167 160.3220 0005818  15.3104 217.1742  1.00272340 51869
RASCOM-QAF 1R           
1 36831U 10037B   24252.15072134  .00000026  00000+0  00000+0 0  9996
2 36831   0.0392 114.8907 0005309  60.5813 229.3984  1.00273176 51805
AEHF-1 (USA 214)        
1 36868U 10039A   24251.87618911  .00000089  00000+0  00000+0 0  9994
2 36868   6.5854  76.2576 0003610  71.7346 164.2507  1.00411245 47163
XM-5                    
1 37185U 10053A   24251.17202094 -.00000018  00000+0  00000+0 0  9990
2 37185   0.0495  92.4430 0000445 326.6445 234.3785  1.00273607 50989
BSAT-3B                 
1 37207U 10056B   24251.93937359 -.00000344  00000+0  00000+0 0  9993
2 37207   0.0823 301.4507 0001668 329.2102 164.8724  1.00271284 45617
BEIDOU-2 G4             
1 37210U 10057A   24251.89586194 -.00000104  00000+0  00000+0 0  9994
2 37210   2.0399  69.5965 0006789 157.3328 243.1684  1.00272510 50806
SKYTERRA 1              
1 37218U 10061A   24252.13004381 -.00000111  00000+0  00000+0 0  9996
2 37218   3.7747  48.9831 0002718 159.9544  84.2864  1.00272977 50731
HYLAS 1                 
1 37237U 10065A   24251.89560130 -.00000116  00000+0  00000+0 0  9997
2 37237   3.9827  80.8878 0001774  94.7360 292.9583  1.00271994   405
INTELSAT 17 (IS-17)     
1 37238U 10065B   24251.90423470  .00000004  00000+0  00000+0 0  9990
2 37238   0.0069 176.1587 0002597   4.0536 198.7812  1.00271896 46747
BEIDOU-2 IGSO-2         
1 37256U 10068A   24251.73716729 -.00000170  00000+0  00000+0 0  9991
2 37256  48.7280 279.8121 0040437 217.4618 223.4739  1.00277342 50305
EUTELSAT KA-SAT 9A      
1 37258U 10069A   24251.93741094  .00000068  00000+0  00000+0 0  9994
2 37258   0.0899 286.8945 0001728 164.5232 242.5085  1.00271742 50337
HISPASAT 30W-5          
1 37264U 10070A   24249.97063233 -.00000214  00000+0  00000+0 0  9990
2 37264   0.0139 150.3344 0005491  15.0013 139.6414  1.00271504 46677
KOREASAT 6              
1 37265U 10070B   24251.85188252 -.00000356  00000+0  00000+0 0  9997
2 37265   0.0384 317.9960 0002013 257.7008 194.4086  1.00271995 50270
BEIDOU-2 IGSO-3         
1 37384U 11013A   24251.85554994 -.00000159  00000+0  00000+0 0  9998
2 37384  61.4805  46.3160 0032411 174.3906 181.6798  1.00288497 49161
INTELSAT 28 (IS-28)     
1 37392U 11016A   24251.92618703  .00000162  00000+0  00000+0 0  9990
2 37392   0.1224  94.0022 0002775  86.0429 173.6705  1.00272773 46796
YAHSAT 1A               
1 37393U 11016B   24251.97019363  .00000108  00000+0  00000+0 0  9993
2 37393   0.0263 247.3504 0002015 273.7561 228.1946  1.00271235 49075
